<?xml version="1.0" encoding="UTF-8"?>
<ndm xmlns:xsi="http://www.w3.org/2001/XMLSchema-instance" xsi:noNamespaceSchemaLocation="https://sanaregistry.org/r/ndmxml_unqualified/ndmxml-2.0.0-master-2.0.xsd">
<omm id="CCSDS_OMM_VERS" version="2.0">
<header><CREATION_DATE/><ORIGINATOR/></header><body><segment><metadata><OBJECT_NAME>ONEWEB-0281</OBJECT_NAME><OBJECT_ID>2021-060AJ</OBJECT_ID><CENTER_NAME>EARTH</CENTER_NAME><REF_FRAME>TEME</REF_FRAME><TIME_SYSTEM>UTC</TIME_SYSTEM><MEAN_ELEMENT_THEORY>SGP4</MEAN_ELEMENT_THEORY></metadata><data><meanElements><EPOCH>2023-12-18T13:25:26.699520</EPOCH><MEAN_MOTION>13.16592797</MEAN_MOTION><ECCENTRICITY>.0001584</ECCENTRICITY><INCLINATION>87.9079</INCLINATION><RA_OF_ASC_NODE>50.2088</RA_OF_ASC_NODE><ARG_OF_PERICENTER>97.8094</ARG_OF_PERICENTER><MEAN_ANOMALY>262.3216</MEAN_ANOMALY></meanElements><tleParameters><EPHEMERIS_TYPE>0</EPHEMERIS_TYPE><CLASSIFICATION_TYPE>U</CLASSIFICATION_TYPE><NORAD_CAT_ID>48999</NORAD_CAT_ID><ELEMENT_SET_NO>999</ELEMENT_SET_NO><REV_AT_EPOCH>11967</REV_AT_EPOCH><BSTAR>.48738E-4</BSTAR><MEAN_MOTION_DOT>.31E-6</MEAN_MOTION_DOT><MEAN_MOTION_DDOT>0</MEAN_MOTION_DDOT></tleParameters></data></segment></body></omm>
<omm id="CCSDS_OMM_VERS" version="2.0">
<header><CREATION_DATE/><ORIGINATOR/></header><body><segment><metadata><OBJECT_NAME>ONEWEB-0282</OBJECT_NAME><OBJECT_ID>2021-060AK</OBJECT_ID><CENTER_NAME>EARTH</CENTER_NAME><REF_FRAME>TEME</REF_FRAME><TIME_SYSTEM>UTC</TIME_SYSTEM><MEAN_ELEMENT_THEORY>SGP4</MEAN_ELEMENT_THEORY></metadata><data><meanElements><EPOCH>2023-12-18T14:07:59.849760</EPOCH><MEAN_MOTION>13.16595441</MEAN_MOTION><ECCENTRICITY>.0002053</ECCENTRICITY><INCLINATION>87.9078</INCLINATION><RA_OF_ASC_NODE>50.2194</RA_OF_ASC_NODE><ARG_OF_PERICENTER>115.7776</ARG_OF_PERICENTER><MEAN_ANOMALY>244.3567</MEAN_ANOMALY></meanElements><tleParameters><EPHEMERIS_TYPE>0</EPHEMERIS_TYPE><CLASSIFICATION_TYPE>U</CLASSIFICATION_TYPE><NORAD_CAT_ID>49000</NORAD_CAT_ID><ELEMENT_SET_NO>999</ELEMENT_SET_NO><REV_AT_EPOCH>11965</REV_AT_EPOCH><BSTAR>-.23275E-3</BSTAR><MEAN_MOTION_DOT>-.76E-6</MEAN_MOTION_DOT><MEAN_MOTION_DDOT>0</MEAN_MOTION_DDOT></tleParameters></data></segment></body></omm>
<omm id="CCSDS_OMM_VERS" version="2.0">
<header><CREATION_DATE/><ORIGINATOR/></header><body><segment><metadata><OBJECT_NAME>ONEWEB-0283</OBJECT_NAME><OBJECT_ID>2021-060AL</OBJECT_ID><CENTER_NAME>EARTH</CENTER_NAME><REF_FRAME>TEME</REF_FRAME><TIME_SYSTEM>UTC</TIME_SYSTEM><MEAN_ELEMENT_THEORY>SGP4</MEAN_ELEMENT_THEORY></metadata><data><meanElements><EPOCH>2023-12-18T13:52:48.728928</EPOCH><MEAN_MOTION>13.16593084</MEAN_MOTION><ECCENTRICITY>.0001682</ECCENTRICITY><INCLINATION>87.9069</INCLINATION><RA_OF_ASC_NODE>50.2323</RA_OF_ASC_NODE><ARG_OF_PERICENTER>114.3107</ARG_OF_PERICENTER><MEAN_ANOMALY>245.8200</MEAN_ANOMALY></meanElements><tleParameters><EPHEMERIS_TYPE>0</EPHEMERIS_TYPE><CLASSIFICATION_TYPE>U</CLASSIFICATION_TYPE><NORAD_CAT_ID>49001</NORAD_CAT_ID><ELEMENT_SET_NO>999</ELEMENT_SET_NO><REV_AT_EPOCH>11966</REV_AT_EPOCH><BSTAR>-.17679E-3</BSTAR><MEAN_MOTION_DOT>-.55E-6</MEAN_MOTION_DOT><MEAN_MOTION_DDOT>0</MEAN_MOTION_DDOT></tleParameters></data></segment></body></omm>
<omm id="CCSDS_OMM_VERS" version="2.0">
<header><CREATION_DATE/><ORIGINATOR/></header><body><segment><metadata><OBJECT_NAME>ONEWEB-0284</OBJECT_NAME><OBJECT_ID>2021-060AM</OBJECT_ID><CENTER_NAME>EARTH</CENTER_NAME><REF_FRAME>TEME</REF_FRAME><TIME_SYSTEM>UTC</TIME_SYSTEM><MEAN_ELEMENT_THEORY>SGP4</MEAN_ELEMENT_THEORY></metadata><data><meanElements><EPOCH>2023-12-18T13:43:42.158208</EPOCH><MEAN_MOTION>13.16590023</MEAN_MOTION><ECCENTRICITY>.0001938</ECCENTRICITY><INCLINATION>87.9062</INCLINATION><RA_OF_ASC_NODE>50.2278</RA_OF_ASC_NODE><ARG_OF_PERICENTER>107.1849</ARG_OF_PERICENTER><MEAN_ANOMALY>252.9494</MEAN_ANOMALY></meanElements><tleParameters><EPHEMERIS_TYPE>0</EPHEMERIS_TYPE><CLASSIFICATION_TYPE>U</CLASSIFICATION_TYPE><NORAD_CAT_ID>49002</NORAD_CAT_ID><ELEMENT_SET_NO>999</ELEMENT_SET_NO><REV_AT_EPOCH>11964</REV_AT_EPOCH><BSTAR>-.25596E-3</BSTAR><MEAN_MOTION_DOT>-.85E-6</MEAN_MOTION_DOT><MEAN_MOTION_DDOT>0</MEAN_MOTION_DDOT></tleParameters></data></segment></body></omm>
<omm id="CCSDS_OMM_VERS" version="2.0">
<header><CREATION_DATE/><ORIGINATOR/></header><body><segment><metadata><OBJECT_NAME>ONEWEB-0285</OBJECT_NAME><OBJECT_ID>2021-075A</OBJECT_ID><CENTER_NAME>EARTH</CENTER_NAME><REF_FRAME>TEME</REF_FRAME><TIME_SYSTEM>UTC</TIME_SYSTEM><MEAN_ELEMENT_THEORY>SGP4</MEAN_ELEMENT_THEORY></metadata><data><meanElements><EPOCH>2023-12-18T13:40:19.155360</EPOCH><MEAN_MOTION>13.12442073</MEAN_MOTION><ECCENTRICITY>.000157</ECCENTRICITY><INCLINATION>87.8997</INCLINATION><RA_OF_ASC_NODE>171.9954</RA_OF_ASC_NODE><ARG_OF_PERICENTER>94.4970</ARG_OF_PERICENTER><MEAN_ANOMALY>265.6338</MEAN_ANOMALY></meanElements><tleParameters><EPHEMERIS_TYPE>0</EPHEMERIS_TYPE><CLASSIFICATION_TYPE>U</CLASSIFICATION_TYPE><NORAD_CAT_ID>49075</NORAD_CAT_ID><ELEMENT_SET_NO>999</ELEMENT_SET_NO><REV_AT_EPOCH>11563</REV_AT_EPOCH><BSTAR>.12098E-2</BSTAR><MEAN_MOTION_DOT>.448E-5</MEAN_MOTION_DOT><MEAN_MOTION_DDOT>0</MEAN_MOTION_DDOT></tleParameters></data></segment></body></omm>
<omm id="CCSDS_OMM_VERS" version="2.0">
<header><CREATION_DATE/><ORIGINATOR/></header><body><segment><metadata><OBJECT_NAME>ONEWEB-0286</OBJECT_NAME><OBJECT_ID>2021-075B</OBJECT_ID><CENTER_NAME>EARTH</CENTER_NAME><REF_FRAME>TEME</REF_FRAME><TIME_SYSTEM>UTC</TIME_SYSTEM><MEAN_ELEMENT_THEORY>SGP4</MEAN_ELEMENT_THEORY></metadata><data><meanElements><EPOCH>2023-12-18T12:58:56.313984</EPOCH><MEAN_MOTION>13.12445768</MEAN_MOTION><ECCENTRICITY>.0001725</ECCENTRICITY><INCLINATION>87.8996</INCLINATION><RA_OF_ASC_NODE>172.0100</RA_OF_ASC_NODE><ARG_OF_PERICENTER>83.8190</ARG_OF_PERICENTER><MEAN_ANOMALY>276.3135</MEAN_ANOMALY></meanElements><tleParameters><EPHEMERIS_TYPE>0</EPHEMERIS_TYPE><CLASSIFICATION_TYPE>U</CLASSIFICATION_TYPE><NORAD_CAT_ID>49076</NORAD_CAT_ID><ELEMENT_SET_NO>999</ELEMENT_SET_NO><REV_AT_EPOCH>11498</REV_AT_EPOCH><BSTAR>-.76644E-3</BSTAR><MEAN_MOTION_DOT>-.263E-5</MEAN_MOTION_DOT><MEAN_MOTION_DDOT>0</MEAN_MOTION_DDOT></tleParameters></data></segment></body></omm>
<omm id="CCSDS_OMM_VERS" version="2.0">
<header><CREATION_DATE/><ORIGINATOR/></header><body><segment><metadata><OBJECT_NAME>ONEWEB-0287</OBJECT_NAME><OBJECT_ID>2021-075C</OBJECT_ID><CENTER_NAME>EARTH</CENTER_NAME><REF_FRAME>TEME</REF_FRAME><TIME_SYSTEM>UTC</TIME_SYSTEM><MEAN_ELEMENT_THEORY>SGP4</MEAN_ELEMENT_THEORY></metadata><data><meanElements><EPOCH>2023-12-18T13:18:09.071424</EPOCH><MEAN_MOTION>13.17875799</MEAN_MOTION><ECCENTRICITY>.0002242</ECCENTRICITY><INCLINATION>87.9186</INCLINATION><RA_OF_ASC_NODE>187.1088</RA_OF_ASC_NODE><ARG_OF_PERICENTER>81.1905</ARG_OF_PERICENTER><MEAN_ANOMALY>278.9480</MEAN_ANOMALY></meanElements><tleParameters><EPHEMERIS_TYPE>0</EPHEMERIS_TYPE><CLASSIFICATION_TYPE>U</CLASSIFICATION_TYPE><NORAD_CAT_ID>49077</NORAD_CAT_ID><ELEMENT_SET_NO>999</ELEMENT_SET_NO><REV_AT_EPOCH>11357</REV_AT_EPOCH><BSTAR>.9885E-2</BSTAR><MEAN_MOTION_DOT>.3865E-4</MEAN_MOTION_DOT><MEAN_MOTION_DDOT>0</MEAN_MOTION_DDOT></tleParameters></data></segment></body></omm>
<omm id="CCSDS_OMM_VERS" version="2.0">
<header><CREATION_DATE/><ORIGINATOR/></header><body><segment><metadata><OBJECT_NAME>ONEWEB-0288</OBJECT_NAME><OBJECT_ID>2021-075D</OBJECT_ID><CENTER_NAME>EARTH</CENTER_NAME><REF_FRAME>TEME</REF_FRAME><TIME_SYSTEM>UTC</TIME_SYSTEM><MEAN_ELEMENT_THEORY>SGP4</MEAN_ELEMENT_THEORY></metadata><data><meanElements><EPOCH>2023-12-18T12:36:04.233600</EPOCH><MEAN_MOTION>13.12439244</MEAN_MOTION><ECCENTRICITY>.0001724</ECCENTRICITY><INCLINATION>87.8994</INCLINATION><RA_OF_ASC_NODE>172.0169</RA_OF_ASC_NODE><ARG_OF_PERICENTER>91.3761</ARG_OF_PERICENTER><MEAN_ANOMALY>268.7565</MEAN_ANOMALY></meanElements><tleParameters><EPHEMERIS_TYPE>0</EPHEMERIS_TYPE><CLASSIFICATION_TYPE>U</CLASSIFICATION_TYPE><NORAD_CAT_ID>49078</NORAD_CAT_ID><ELEMENT_SET_NO>999</ELEMENT_SET_NO><REV_AT_EPOCH>11560</REV_AT_EPOCH><BSTAR>-.69304E-3</BSTAR><MEAN_MOTION_DOT>-.237E-5</MEAN_MOTION_DOT><MEAN_MOTION_DDOT>0</MEAN_MOTION_DDOT></tleParameters></data></segment></body></omm>

</ndm>
