ONEWEB-0281             
1 48999U 21060AJ  23352.55933680  .00000031  00000+0  48738-4 0  9999
2 48999  87.9079  50.2088 0001584  97.8094 262.3216 13.16592797119675
ONEWEB-0282             
1 49000U 21060AK  23352.58888715 -.00000076  00000+0 -23275-3 0  9993
2 49000  87.9078  50.2194 0002053 115.7776 244.3567 13.16595441119651
ONEWEB-0283             
1 49001U 21060AL  23352.57834177 -.00000055  00000+0 -17679-3 0  9994
2 49001  87.9069  50.2323 0001682 114.3107 245.8200 13.16593084119668
ONEWEB-0284             
1 49002U 21060AM  23352.57201572 -.00000085  00000+0 -25596-3 0  9992
2 49002  87.9062  50.2278 0001938 107.1849 252.9494 13.16590023119640
ONEWEB-0285             
1 49075U 21075A   23352.56966615  .00000448  00000+0  12098-2 0  9996
2 49075  87.8997 171.9954 0001570  94.4970 265.6338 13.12442073115633
ONEWEB-0286             
1 49076U 21075B   23352.54092956 -.00000263  00000+0 -76644-3 0  9998
2 49076  87.8996 172.0100 0001725  83.8190 276.3135 13.12445768114981
ONEWEB-0287             
1 49077U 21075C   23352.55427166  .00003865  00000+0  98850-2 0  9996
2 49077  87.9186 187.1088 0002242  81.1905 278.9480 13.17875799113577
ONEWEB-0288             
1 49078U 21075D   23352.52504900 -.00000237  00000+0 -69304-3 0  9991
2 49078  87.8994 172.0169 0001724  91.3761 268.7565 13.12439244115607
